UWE-4                   
1 43880U 18111E   24026.24290145  .00010755  00000+0  73723-3 0  9998
2 43880  97.6227 293.3176 0018807 131.3969 228.8878 15.06073404277891
JAISAT-1                
1 44419U 19038F   24026.52374731  .00066353  00000+0  12162-2 0  9995
2 44419  97.6836  23.5374 0008326 199.9101 160.1825 15.49041263252867
DUCHIFAT-3              
1 44854U 19089C   24025.86033771  .00016178  00000+0  94043-3 0  9995
2 44854  36.9573 195.6619 0008847 352.6449   7.4166 15.11405491226473
TIANYAN 01              
1 44881U 19093C   24026.51720382  .00001729  00000+0  21766-3 0  9992
2 44881  97.8425 106.0347 0015874  71.0768 289.2165 14.83211579221893
RS-44 & BREEZE-KM R/B   
1 44909U 19096E   24026.58760036  .00000000  00000+0 -47997-4 0  9990
2 44909  82.5206 199.5030 0217815  24.8819 336.2597 12.79726227190734
BY70-2                  
1 45857U 20042B   24026.59308984  .00045088  00000+0  31503-2 0  9995
2 45857  97.9194 114.2397 0007794 330.8519  29.2270 15.05138622192954
SALSAT                  
1 46495U 20068K   24026.44602581  .00008025  00000+0  48778-3 0  9999
2 46495  97.7991 342.6030 0016494  81.3485 278.9611 15.10629249182748
RADFXSAT-2 (AO-109)     
1 47311U 21002C   24026.01379425  .00113007  00000+0  12173-2 0  9993
2 47311  60.6718 270.0392 0026563  70.1628 290.2337 15.62601054168781
UVSQ-SAT                
1 47438U 21006AB  24026.14407484  .00036559  00000+0  10813-2 0  9993
2 47438  97.3525  86.0966 0008246  18.3605 341.7934 15.34790975166719
LEDSAT                  
1 49069U 21073D   24026.19385787  .00016219  00000+0  75854-3 0  9993
2 49069  97.4574  98.7589 0022670  66.5789 293.7826 15.19613778134700
XW-3 (CAS-9)            
1 50466U 21131B   24026.56184487  .00000937  00000+0  31575-3 0  9998
2 50466  98.5370 112.3091 0004257 178.6074 181.5127 14.39324024109482
TEVEL-3                 
1 50988U 22002E   24026.53316216  .00046803  00000+0  11721-2 0  9991
2 50988  97.4036  98.6482 0005300 154.0330 206.1182 15.39920418112941
TEVEL-8                 
1 50989U 22002F   24026.56329232  .00049729  00000+0  12486-2 0  9996
2 50989  97.4052  98.7610 0005238 151.9971 208.1558 15.39826691112948
TEVEL-5                 
1 50998U 22002Q   24026.57003206  .00053406  00000+0  12606-2 0  9998
2 50998  97.4028  99.4472 0005904 146.9560 213.2057 15.41680566113004
TEVEL-6                 
1 50999U 22002R   24026.56996093  .00054176  00000+0  12798-2 0  9990
2 50999  97.4025  99.4332 0005919 146.8228 213.3391 15.41652657113005
TEVEL-1                 
1 51013U 22002AF  24026.48698911  .00048571  00000+0  12197-2 0  9992
2 51013  97.4028  98.4993 0005124 153.4137 206.7373 15.39828985112932
TEVEL-7                 
1 51062U 22002CG  24026.55925179  .00050066  00000+0  12544-2 0  9991
2 51062  97.4047  98.7273 0005246 152.4667 207.6857 15.39889846112944
TEVEL-4                 
1 51063U 22002CH  24026.57823885  .00045851  00000+0  11554-2 0  9991
2 51063  97.4046  98.6942 0005203 151.7206 208.4323 15.39736538112946
TEVEL-2                 
1 51069U 22002CP  24026.46842441  .00047154  00000+0  11804-2 0  9990
2 51069  97.4033  98.5496 0005269 153.9880 206.1631 15.39931504112931
GREENCUBE               
1 53106U 22080B   24023.90926672 -.00000003  00000+0  00000+0 0  9991
2 53106  70.1321 243.0011 0008307 135.9399 224.1923  6.42557719 35938
CYCLOPS (RS29S)         
1 53373U 22096D   24025.03673502  .00194206  00000+0  12939-2 0  9996
2 53373  97.3948 302.7579 0006219 101.3848 258.8116 15.74801428 82088
MONITOR-1 (RS32S)       
1 53374U 22096E   24026.58016040  .00166945  00000+0  13929-2 0  9995
2 53374  97.3894 303.4183 0006149  97.0496 263.1466 15.69528839 82274
KUZBASS-300 (RS34S)     
1 53375U 22096F   24026.57332628  .00073874  00000+0  10506-2 0  9994
2 53375  97.3989 301.4775 0004592  84.9498 275.2281 15.56119227 82139
UTMN (RS23S)            
1 53376U 22096G   24026.55307938  .00086471  00000+0  11155-2 0  9997
2 53376  97.3968 301.9281 0004875  91.9861 268.1954 15.58694630 82169
MIET-AIS (RS28S)        
1 53377U 22096H   24026.56246824  .00063203  00000+0  98979-3 0  9993
2 53377  97.4006 301.0769 0004116  86.8899 273.2826 15.53518151 82105
KAI-1 (RS26S)           
1 53378U 22096J   24026.58890123  .00044469  00000+0  82902-3 0  9995
2 53378  97.4051 300.0482 0003785  83.4861 276.6820 15.48683070 82030
ISOI (RS19S)            
1 53381U 22096M   24026.55239294  .00066250  00000+0  98765-3 0  9998
2 53381  97.4026 301.6695 0002917  67.1727 292.9835 15.54868562 82142
CUBESX-HSE-2 (RS21S)    
1 53383U 22096P   24026.58422550  .00083031  00000+0  10892-2 0  9992
2 53383  97.3976 302.2148 0003038  61.8190 298.3372 15.58268677 82182
SIREN (RS30S)           
1 53384U 22096Q   24026.54816279  .00054271  00000+0  90970-3 0  9994
2 53384  97.4024 300.9622 0002591  47.7360 312.4112 15.51663444 82099
GEOSCAN-EDELVEIS (RS20S)
1 53385U 22096R   24026.37715638  .00395244  00000+0  17061-2 0  9990
2 53385  97.3901 305.6370 0004491  99.5819 260.5958 15.83944669 82424
CAS-5A (FO-118)         
1 54684U 22167C   24026.55237026  .00022471  00000+0  98984-3 0  9995
2 54684  97.5851 169.1628 0011256 285.6698  74.3296 15.21781340 62557
STRATOSAT-TK 1 (RS52S)  
1 57167U 23091B   24026.60463379  .00012679  00000+0  83081-3 0  9990
2 57167  97.6353  80.4367 0015182 245.1739 114.7910 15.07752481 32049
UMKA 1 (RS40S)          
1 57172U 23091G   24026.59441584  .00005826  00000+0  40767-3 0  9998
2 57172  97.6351  80.1426 0015810 244.9826 114.9759 15.05559529 32025
CUBESX-HSE 3 (RS42S)    
1 57178U 23091N   24026.57293242  .00008392  00000+0  57579-3 0  9998
2 57178  97.6375  80.2733 0017109 240.3968 119.5555 15.06138089 32029
MONITOR-4 (RS57S)       
1 57182U 23091S   24026.59287884  .00006993  00000+0  48399-3 0  9995
2 57182  97.6375  80.2158 0016965 240.4390 119.5146 15.05878883 32022
MONITOR-2 (RS39S)       
1 57184U 23091U   24026.58271278  .00004510  00000+0  31357-3 0  9995
2 57184  97.6374  80.3949 0013434 233.4524 126.5467 15.05949237 32038
SVYATOBOR 1 (RS60S)     
1 57187U 23091X   24026.58259653  .00006881  00000+0  46527-3 0  9999
2 57187  97.6375  80.5518 0013113 231.1588 128.8470 15.06797441 32044
VIZARD-METEO (RS38S)    
1 57189U 23091Z   24026.57393917  .00008682  00000+0  57302-3 0  9996
2 57189  97.6367  80.6961 0012222 229.4640 130.5524 15.07624228 32053
NANOZOND 1 (RS49S)      
1 57190U 23091AA  24026.55010507  .00011719  00000+0  74587-3 0  9996
2 57190  97.6352  80.8077 0010552 234.9088 125.1152 15.08895193 32060
POLYTECH-UNIVERSE 3 (R*)
1 57191U 23091AB  24026.57699434  .00005384  00000+0  37425-3 0  9992
2 57191  97.6337  80.1597 0018953 252.8531 107.0620 15.05798599 32023
UTMN 2 (RS27S)          
1 57203U 23091AP  24026.59628950  .00007738  00000+0  51501-3 0  9999
2 57203  97.6375  80.6654 0012259 228.5127 131.5049 15.07354367 32055
ARCCUBE 1 (RS25S)       
1 57205U 23091AR  24026.59678179  .00013127  00000+0  82505-3 0  9996
2 57205  97.6328  80.8501 0010697 236.1390 123.8821 15.09325924 32072
KUZGTU 1 (RS47S)        
1 57217U 23091AV  24026.57255894  .00008150  00000+0  56023-3 0  9998
2 57217  97.6350  80.2058 0016994 241.7872 118.1640 15.06080885 32026
HADES-D (SO-121)        
1 58567U 23174CY  24026.18346922  .00033547  00000+0  16920-2 0  9998
2 58567  97.4739 102.9053 0015238  13.0963 347.0663 15.16955977 12022
